STARLINK-31502          
1 59301U 24056F   26067.81125089 -.00005629  00000+0 -19549-3 0  9994
2 59301  43.0012 228.4246 0001841 269.2505  90.8136 15.27529889111108
TANSTAAFL-2             
1 62378U 24247B   26067.20753490  .00013897  00000+0  50872-3 0  9998
2 62378  44.9880 125.0934 0003072 298.8909  61.1666 15.28016845 67506
